[{"CCSDS_OMM_VERS":"3.0","COMMENT":"GENERATED VIA SPACE-TRACK.ORG API","CREATION_DATE":"2026-01-18T18:14:43","ORIGINATOR":"18 SPCS","OBJECT_NAME":"THOR ABLESTAR DEB","OBJECT_ID":"1961-015R","CENTER_NAME":"EARTH","REF_FRAME":"TEME","TIME_SYSTEM":"UTC","MEAN_ELEMENT_THEORY":"SGP4","EPOCH":"2026-01-18T13:21:54.781920","MEAN_MOTION":"14.01724880","ECCENTRICITY":"0.00797389","INCLINATION":"66.7353","RA_OF_ASC_NODE":"116.6263","ARG_OF_PERICENTER":"178.6612","MEAN_ANOMALY":"181.4701","EPHEMERIS_TYPE":"0","CLASSIFICATION_TYPE":"U","NORAD_CAT_ID":"131","ELEMENT_SET_NO":"999","REV_AT_EPOCH":"28249","BSTAR":"0.00012445168000","MEAN_MOTION_DOT":"0.00000115","MEAN_MOTION_DDOT":"0.0000000000000","SEMIMAJOR_AXIS":"7265.965","PERIOD":"102.731","APOAPSIS":"945.768","PERIAPSIS":"829.892","OBJECT_TYPE":"DEBRIS","RCS_SIZE":"MEDIUM","COUNTRY_CODE":"US","LAUNCH_DATE":"1961-06-29","SITE":"AFETR","DECAY_DATE":null,"FILE":"4972861","GP_ID":"309361525","TLE_LINE0":"0 THOR ABLESTAR DEB","TLE_LINE1":"1 00131U 61015R   26018.55688405  .00000115  00000-0  12445-3 0  9992","TLE_LINE2":"2 00131  66.7353 116.6263 0079739 178.6612 181.4701 14.01724880282490"},{"CCSDS_OMM_VERS":"3.0","COMMENT":"GENERATED VIA SPACE-TRACK.ORG API","CREATION_DATE":"2026-01-19T02:30:55","ORIGINATOR":"18 SPCS","OBJECT_NAME":"THOR ABLESTAR DEB","OBJECT_ID":"1961-015S","CENTER_NAME":"EARTH","REF_FRAME":"TEME","TIME_SYSTEM":"UTC","MEAN_ELEMENT_THEORY":"SGP4","EPOCH":"2026-01-18T22:25:02.294976","MEAN_MOTION":"13.94745705","ECCENTRICITY":"0.00814441","INCLINATION":"66.6618","RA_OF_ASC_NODE":"340.8222","ARG_OF_PERICENTER":"288.8420","MEAN_ANOMALY":"70.3840","EPHEMERIS_TYPE":"0","CLASSIFICATION_TYPE":"U","NORAD_CAT_ID":"132","ELEMENT_SET_NO":"999","REV_AT_EPOCH":"28285","BSTAR":"0.00006001619700","MEAN_MOTION_DOT":"0.00000004","MEAN_MOTION_DDOT":"0.0000000000000","SEMIMAJOR_AXIS":"7290.184","PERIOD":"103.245","APOAPSIS":"971.423","PERIAPSIS":"852.675","OBJECT_TYPE":"DEBRIS","RCS_SIZE":"MEDIUM","COUNTRY_CODE":"US","LAUNCH_DATE":"1961-06-29","SITE":"AFETR","DECAY_DATE":null,"FILE":"4972920","GP_ID":"309393726","TLE_LINE0":"0 THOR ABLESTAR DEB","TLE_LINE1":"1 00132U 61015S   26018.93405434  .00000004  00000-0  60016-4 0  9999","TLE_LINE2":"2 00132  66.6618 340.8222 0081444 288.8420  70.3840 13.94745705282857"},{"CCSDS_OMM_VERS":"3.0","COMMENT":"GENERATED VIA SPACE-TRACK.ORG API","CREATION_DATE":"2026-01-19T02:30:55","ORIGINATOR":"18 SPCS","OBJECT_NAME":"THOR ABLESTAR DEB","OBJECT_ID":"1961-015T","CENTER_NAME":"EARTH","REF_FRAME":"TEME","TIME_SYSTEM":"UTC","MEAN_ELEMENT_THEORY":"SGP4","EPOCH":"2026-01-18T22:52:39.465984","MEAN_MOTION":"14.22744632","ECCENTRICITY":"0.00557804","INCLINATION":"67.1129","RA_OF_ASC_NODE":"239.0095","ARG_OF_PERICENTER":"258.6744","MEAN_ANOMALY":"100.8083","EPHEMERIS_TYPE":"0","CLASSIFICATION_TYPE":"U","NORAD_CAT_ID":"133","ELEMENT_SET_NO":"999","REV_AT_EPOCH":"31225","BSTAR":"0.00029343121000","MEAN_MOTION_DOT":"0.00000588","MEAN_MOTION_DDOT":"0.0000000000000","SEMIMAJOR_AXIS":"7194.223","PERIOD":"101.213","APOAPSIS":"856.217","PERIAPSIS":"775.958","OBJECT_TYPE":"DEBRIS","RCS_SIZE":"MEDIUM","COUNTRY_CODE":"US","LAUNCH_DATE":"1961-06-29","SITE":"AFETR","DECAY_DATE":null,"FILE":"4972920","GP_ID":"309393226","TLE_LINE0":"0 THOR ABLESTAR DEB","TLE_LINE1":"1 00133U 61015T   26018.95323456  .00000588  00000-0  29343-3 0  9999","TLE_LINE2":"2 00133  67.1129 239.0095 0055780 258.6744 100.8083 14.22744632312252"},{"CCSDS_OMM_VERS":"3.0","COMMENT":"GENERATED VIA SPACE-TRACK.ORG API","CREATION_DATE":"2026-01-18T18:14:43","ORIGINATOR":"18 SPCS","OBJECT_NAME":"THOR ABLESTAR DEB","OBJECT_ID":"1961-015U","CENTER_NAME":"EARTH","REF_FRAME":"TEME","TIME_SYSTEM":"UTC","MEAN_ELEMENT_THEORY":"SGP4","EPOCH":"2026-01-18T09:08:57.988608","MEAN_MOTION":"13.97707877","ECCENTRICITY":"0.00874431","INCLINATION":"66.8801","RA_OF_ASC_NODE":"55.6093","ARG_OF_PERICENTER":"297.6468","MEAN_ANOMALY":"61.5759","EPHEMERIS_TYPE":"0","CLASSIFICATION_TYPE":"U","NORAD_CAT_ID":"134","ELEMENT_SET_NO":"999","REV_AT_EPOCH":"28476","BSTAR":"0.00012831960000","MEAN_MOTION_DOT":"0.00000110","MEAN_MOTION_DDOT":"0.0000000000000","SEMIMAJOR_AXIS":"7279.880","PERIOD":"103.026","APOAPSIS":"965.403","PERIAPSIS":"838.088","OBJECT_TYPE":"DEBRIS","RCS_SIZE":"LARGE","COUNTRY_CODE":"US","LAUNCH_DATE":"1961-06-29","SITE":"AFETR","DECAY_DATE":null,"FILE":"4972861","GP_ID":"309361027","TLE_LINE0":"0 THOR ABLESTAR DEB","TLE_LINE1":"1 00134U 61015U   26018.38122672  .00000110  00000-0  12832-3 0  9990","TLE_LINE2":"2 00134  66.8801  55.6093 0087443 297.6468  61.5759 13.97707877284761"},{"CCSDS_OMM_VERS":"3.0","COMMENT":"GENERATED VIA SPACE-TRACK.ORG API","CREATION_DATE":"2026-01-19T02:30:55","ORIGINATOR":"18 SPCS","OBJECT_NAME":"THOR ABLESTAR DEB","OBJECT_ID":"1961-015W","CENTER_NAME":"EARTH","REF_FRAME":"TEME","TIME_SYSTEM":"UTC","MEAN_ELEMENT_THEORY":"SGP4","EPOCH":"2026-01-18T22:16:25.575456","MEAN_MOTION":"14.41594932","ECCENTRICITY":"0.00446444","INCLINATION":"67.5295","RA_OF_ASC_NODE":"305.4445","ARG_OF_PERICENTER":"177.3358","MEAN_ANOMALY":"182.8000","EPHEMERIS_TYPE":"0","CLASSIFICATION_TYPE":"U","NORAD_CAT_ID":"136","ELEMENT_SET_NO":"999","REV_AT_EPOCH":"33524","BSTAR":"0.00040449508000","MEAN_MOTION_DOT":"0.00001253","MEAN_MOTION_DDOT":"0.0000000000000","SEMIMAJOR_AXIS":"7131.371","PERIOD":"99.889","APOAPSIS":"785.073","PERIAPSIS":"721.398","OBJECT_TYPE":"DEBRIS","RCS_SIZE":"SMALL","COUNTRY_CODE":"US","LAUNCH_DATE":"1961-06-29","SITE":"AFETR","DECAY_DATE":null,"FILE":"4972920","GP_ID":"309393227","TLE_LINE0":"0 THOR ABLESTAR DEB","TLE_LINE1":"1 00136U 61015W   26018.92807379  .00001253  00000-0  40450-3 0  9992","TLE_LINE2":"2 00136  67.5295 305.4445 0044644 177.3358 182.8000 14.41594932335245"},{"CCSDS_OMM_VERS":"3.0","COMMENT":"GENERATED VIA SPACE-TRACK.ORG API","CREATION_DATE":"2026-01-18T18:14:43","ORIGINATOR":"18 SPCS","OBJECT_NAME":"THOR ABLESTAR DEB","OBJECT_ID":"1961-015Y","CENTER_NAME":"EARTH","REF_FRAME":"TEME","TIME_SYSTEM":"UTC","MEAN_ELEMENT_THEORY":"SGP4","EPOCH":"2026-01-18T11:14:09.540672","MEAN_MOTION":"14.04568423","ECCENTRICITY":"0.00350850","INCLINATION":"67.1547","RA_OF_ASC_NODE":"110.4865","ARG_OF_PERICENTER":"243.0946","MEAN_ANOMALY":"116.6557","EPHEMERIS_TYPE":"0","CLASSIFICATION_TYPE":"U","NORAD_CAT_ID":"138","ELEMENT_SET_NO":"999","REV_AT_EPOCH":"28180","BSTAR":"0.00026952452000","MEAN_MOTION_DOT":"0.00000356","MEAN_MOTION_DDOT":"0.0000000000000","SEMIMAJOR_AXIS":"7256.155","PERIOD":"102.523","APOAPSIS":"903.479","PERIAPSIS":"852.562","OBJECT_TYPE":"DEBRIS","RCS_SIZE":"SMALL","COUNTRY_CODE":"US","LAUNCH_DATE":"1961-06-29","SITE":"AFETR","DECAY_DATE":null,"FILE":"4972861","GP_ID":"309361028","TLE_LINE0":"0 THOR ABLESTAR DEB","TLE_LINE1":"1 00138U 61015Y   26018.46816598  .00000356  00000-0  26952-3 0  9990","TLE_LINE2":"2 00138  67.1547 110.4865 0035085 243.0946 116.6557 14.04568423281805"},{"CCSDS_OMM_VERS":"3.0","COMMENT":"GENERATED VIA SPACE-TRACK.ORG API","CREATION_DATE":"2026-01-18T18:14:43","ORIGINATOR":"18 SPCS","OBJECT_NAME":"THOR ABLESTAR DEB","OBJECT_ID":"1961-015AB","CENTER_NAME":"EARTH","REF_FRAME":"TEME","TIME_SYSTEM":"UTC","MEAN_ELEMENT_THEORY":"SGP4","EPOCH":"2026-01-18T08:33:19.235232","MEAN_MOTION":"13.88888627","ECCENTRICITY":"0.00501747","INCLINATION":"66.5888","RA_OF_ASC_NODE":"51.9321","ARG_OF_PERICENTER":"151.6765","MEAN_ANOMALY":"208.7055","EPHEMERIS_TYPE":"0","CLASSIFICATION_TYPE":"U","NORAD_CAT_ID":"141","ELEMENT_SET_NO":"999","REV_AT_EPOCH":"25101","BSTAR":"0.00036546378000","MEAN_MOTION_DOT":"0.00000369","MEAN_MOTION_DDOT":"0.0000000000000","SEMIMAJOR_AXIS":"7310.665","PERIOD":"103.680","APOAPSIS":"969.211","PERIAPSIS":"895.849","OBJECT_TYPE":"DEBRIS","RCS_SIZE":"MEDIUM","COUNTRY_CODE":"US","LAUNCH_DATE":"1961-06-29","SITE":"AFETR","DECAY_DATE":null,"FILE":"4972861","GP_ID":"309361528","TLE_LINE0":"0 THOR ABLESTAR DEB","TLE_LINE1":"1 00141U 61015AB  26018.35647263  .00000369  00000-0  36546-3 0  9997","TLE_LINE2":"2 00141  66.5888  51.9321 0050175 151.6765 208.7055 13.88888627251014"},{"CCSDS_OMM_VERS":"3.0","COMMENT":"GENERATED VIA SPACE-TRACK.ORG API","CREATION_DATE":"2026-01-19T02:30:55","ORIGINATOR":"18 SPCS","OBJECT_NAME":"THOR ABLESTAR DEB","OBJECT_ID":"1961-015AE","CENTER_NAME":"EARTH","REF_FRAME":"TEME","TIME_SYSTEM":"UTC","MEAN_ELEMENT_THEORY":"SGP4","EPOCH":"2026-01-18T17:57:46.675296","MEAN_MOTION":"13.91588451","ECCENTRICITY":"0.00342226","INCLINATION":"66.4996","RA_OF_ASC_NODE":"37.8830","ARG_OF_PERICENTER":"95.4799","MEAN_ANOMALY":"265.0183","EPHEMERIS_TYPE":"0","CLASSIFICATION_TYPE":"U","NORAD_CAT_ID":"144","ELEMENT_SET_NO":"999","REV_AT_EPOCH":"26385","BSTAR":"0.00021367358000","MEAN_MOTION_DOT":"0.00000193","MEAN_MOTION_DDOT":"0.0000000000000","SEMIMAJOR_AXIS":"7301.206","PERIOD":"103.479","APOAPSIS":"948.058","PERIAPSIS":"898.085","OBJECT_TYPE":"DEBRIS","RCS_SIZE":"SMALL","COUNTRY_CODE":"US","LAUNCH_DATE":"1961-06-29","SITE":"AFETR","DECAY_DATE":null,"FILE":"4972920","GP_ID":"309393729","TLE_LINE0":"0 THOR ABLESTAR DEB","TLE_LINE1":"1 00144U 61015AE  26018.74845689  .00000193  00000-0  21367-3 0  9995","TLE_LINE2":"2 00144  66.4996  37.8830 0034223  95.4799 265.0183 13.91588451263851"}]